     2.100          NAVIGATION                              RINEX VERSION / TYPE
fic2rin                                 02/18/2012 00:08:58 PGM / RUN BY / DATE
                                                            END OF HEADER
30 12  2 17 20  0  0.0 -.488562509418D-04 -.133013600134D-10  .000000000000D+00
     .150000000000D+02 -.101406250000D+03  .457626204825D-08  .295458621607D+01
    -.517442822456D-05  .108855054714D-01  .372529029846D-05  .515362071800D+04
     .504000000000D+06  .134110450745D-06 -.154664175284D+01  .298023223877D-07
     .958381138433D+00  .306375000000D+03  .155520176344D+01 -.816498296146D-08
    -.255010622216D-09  .100000000000D+01  .167500000000D+04  .000000000000D+00
     .685000000000D+01  .000000000000D+00 -.419095158577D-08  .150000000000D+02
     .496806000000D+06  .400000000000D+01
31 12  2 17 20  0  0.0  .209360383451D-03  .454747350886D-11  .000000000000D+00
     .390000000000D+02  .567187500000D+02  .427982112887D-08  .271932448358D+00
     .287778675556D-05  .801342469640D-02  .308640301228D-05  .515358971977D+04
     .504000000000D+06 -.335276126862D-07 -.247740002675D+01 -.132247805595D-06
     .980837875995D+00  .332593750000D+03 -.901693645102D+00 -.835320508738D-08
     .853606984729D-10  .100000000000D+01  .167500000000D+04  .000000000000D+00
     .240000000000D+01  .000000000000D+00 -.130385160446D-07  .390000000000D+02
     .496806000000D+06  .400000000000D+01
32 12  2 17 20  0  0.0 -.408831518143D-03 -.534328137292D-11  .000000000000D+00
     .109000000000D+03 -.621875000000D+01  .503306679029D-08  .903895354367D+00
    -.411644577980D-06  .118881303351D-01  .808387994766D-05  .515373403740D+04
     .504000000000D+06  .294297933578D-06  .178327075929D+01 -.163912773132D-06
     .952049068688D+00  .220218750000D+03 -.614205051077D+00 -.820284168128D-08
    -.453233164695D-09  .100000000000D+01  .167500000000D+04  .000000000000D+00
     .340000000000D+01  .000000000000D+00 -.279396772385D-08  .109000000000D+03
     .496806000000D+06  .400000000000D+01
26 12  2 17 19 59 44.0 -.213948078454D-04 -.628688212601D-10  .000000000000D+00
     .110000000000D+02  .778437500000D+02  .384551732409D-08  .172557232959D+01
     .376813113689D-05  .207926554140D-01  .103730708361D-04  .515366106224D+04
     .503984000000D+06 -.331550836563D-06  .282666365018D+01 -.441446900368D-06
     .984633430117D+00  .193093750000D+03  .117208317717D+01 -.766889086866D-08
    -.842892252703D-10  .100000000000D+01  .167500000000D+04  .000000000000D+00
     .240000000000D+01  .630000000000D+02 -.605359673500D-08  .110000000000D+02
     .498486000000D+06  .400000000000D+01
32 12  2 17 19 59 44.0 -.408830121160D-03 -.522959453519D-11  .000000000000D+00
     .110000000000D+02 -.621875000000D+01  .503342394803D-08  .901561631375D+00
    -.411644577980D-06  .118881268427D-01  .808387994766D-05  .515373403549D+04
     .503984000000D+06  .294297933578D-06  .178327088364D+01 -.163912773132D-06
     .952049076003D+00  .220218750000D+03 -.614205020356D+00 -.820284168128D-08
    -.453233164695D-09  .100000000000D+01  .167500000000D+04  .000000000000D+00
     .240000000000D+01  .000000000000D+00 -.279396772385D-08  .110000000000D+02
     .498606000000D+06  .400000000000D+01
14 12  2 17 19 59 44.0  .194210093468D-03  .136424205266D-11  .000000000000D+00
     .700000000000D+01  .101406250000D+03  .383051669925D-08  .267928573969D+01
     .518746674061D-05  .614159728866D-02  .991858541965D-05  .515356442833D+04
     .503984000000D+06  .484287738800D-07  .280636243317D+01 -.782310962677D-07
     .979948053147D+00  .195906250000D+03 -.204612482812D+01 -.758138722378D-08
    -.122505102829D-09  .100000000000D+01  .167500000000D+04  .000000000000D+00
     .240000000000D+01  .000000000000D+00 -.884756445885D-08  .700000000000D+01
     .500856000000D+06  .400000000000D+01
25 12  2 17 19 59 44.0  .317064113915D-04  .227373675443D-12  .000000000000D+00
     .900000000000D+01 -.929062500000D+02  .443732768965D-08 -.107499100708D+01
    -.492855906487D-05  .122425646987D-02  .498630106449D-05  .515375618935D+04
     .503984000000D+06  .465661287308D-07 -.145662001359D+01  .149011611938D-07
     .967122969262D+00  .287750000000D+03  .629109049809D+00 -.819641284207D-08
    -.272868508926D-09  .100000000000D+01  .167500000000D+04  .000000000000D+00
     .240000000000D+01  .000000000000D+00  .558793544769D-08  .900000000000D+01
     .500856000000D+06  .400000000000D+01
14 12  2 17 21 59 44.0  .194219406694D-03  .136424205266D-11  .000000000000D+00
     .800000000000D+01  .891562500000D+02  .393623538858D-08 -.255362731018D+01
     .471249222755D-05  .614336435683D-02  .975839793682D-05  .515356116486D+04
     .511184000000D+06  .949949026108D-07  .280630758252D+01 -.149011611938D-07
     .979947252931D+00  .201468750000D+03 -.204615246850D+01 -.759353058674D-08
    -.732173355102D-10  .100000000000D+01  .167500000000D+04  .000000000000D+00
     .240000000000D+01  .000000000000D+00 -.884756445885D-08  .800000000000D+01
     .504006000000D+06  .400000000000D+01
25 12  2 17 21 59 44.0  .317082740366D-04  .227373675443D-12  .000000000000D+00
     .290000000000D+02 -.874375000000D+02  .446375736198D-08 -.239590242295D-01
    -.463053584099D-05  .122641969938D-02  .391341745853D-05  .515376076889D+04
     .511184000000D+06 -.279396772385D-07 -.145667934223D+01  .186264514923D-08
     .967120665166D+00  .304406250000D+03  .628205930499D+00 -.827248743945D-08
    -.269296931584D-09  .100000000000D+01  .167500000000D+04  .000000000000D+00
     .240000000000D+01  .000000000000D+00  .558793544769D-08  .290000000000D+02
     .504006000000D+06  .400000000000D+01
26 12  2 17 21 59 44.0 -.218474306166D-04 -.629825080978D-10  .000000000000D+00
     .120000000000D+02  .824062500000D+02  .372908390274D-08  .277581974947D+01
     .406987965107D-05  .207928045420D-01  .106971710920D-04  .515365901375D+04
     .511184000000D+06  .102445483208D-06  .282661073497D+01 -.264495611191D-06
     .984634468789D+00  .180218750000D+03  .117202028047D+01 -.727137431050D-08
    -.127148153374D-09  .100000000000D+01  .167500000000D+04  .000000000000D+00
     .240000000000D+01  .630000000000D+02 -.605359673500D-08  .120000000000D+02
     .504006000000D+06  .400000000000D+01
32 12  2 17 21 59 44.0 -.408868305385D-03 -.522959453519D-11  .000000000000D+00
     .120000000000D+02  .343750000000D+00  .488484633060D-08  .195163138279D+01
    -.894069671631D-07  .118882786483D-01  .802427530289D-05  .515373579025D+04
     .511184000000D+06  .176951289177D-06  .178321369378D+01  .104308128357D-06
     .952045924877D+00  .219937500000D+03 -.614128771603D+00 -.800211903466D-08
    -.580381318069D-09  .100000000000D+01  .167500000000D+04  .000000000000D+00
     .240000000000D+01  .000000000000D+00 -.279396772385D-08  .120000000000D+02
     .504006000000D+06  .400000000000D+01
 1 12  2 17 22  0  0.0  .213603023440D-03  .966338120634D-11  .000000000000D+00
     .440000000000D+02  .155625000000D+02  .479555689705D-08  .118640799347D+01
     .730156898499D-06  .577192287892D-03  .686198472977D-05  .515365125084D+04
     .511200000000D+06  .242143869400D-07  .642573853140D+00 -.186264514923D-08
     .960318178021D+00  .244468750000D+03  .908745900640D+00 -.809640867649D-08
     .398588031363D-09  .100000000000D+01  .167500000000D+04  .000000000000D+00
     .240000000000D+01  .000000000000D+00  .838190317154D-08  .440000000000D+02
     .504006000000D+06  .400000000000D+01
 2 12  2 17 22  0  0.0  .379398465157D-03  .159161572810D-11  .000000000000D+00
     .260000000000D+02  .232812500000D+02  .511771317330D-08  .284041433843D+01
     .130385160446D-05  .109233298572D-01  .731460750103D-05  .515364413261D+04
     .511200000000D+06 -.176951289177D-06  .630984051430D+00 -.124797224998D-06
     .938893537942D+00  .224937500000D+03 -.286311057177D+01 -.814391065514D-08
     .487163149443D-09  .100000000000D+01  .167500000000D+04  .000000000000D+00
     .240000000000D+01  .000000000000D+00 -.172294676304D-07  .260000000000D+02
     .504006000000D+06  .400000000000D+01
 3 12  2 17 22  0  0.0  .109327957034D-04  .500222085975D-11  .000000000000D+00
     .560000000000D+02 -.796250000000D+02  .474769776067D-08  .297512657483D+01
    -.409409403801D-05  .150133630959D-01  .110156834126D-04  .515371247864D+04
     .511200000000D+06  .707805156708D-07 -.530845654344D+00 -.782310962677D-07
     .930793442460D+00  .148062500000D+03  .117089243939D+01 -.785068415536D-08
     .219294848796D-09  .100000000000D+01  .167500000000D+04  .000000000000D+00
     .240000000000D+01  .000000000000D+00 -.419095158577D-08  .560000000000D+02
     .504006000000D+06  .400000000000D+01
 4 12  2 17 22  0  0.0  .971350818872D-04  .114823706099D-10  .000000000000D+00
     .170000000000D+02  .217812500000D+02  .529414909399D-08 -.360803390418D+00
     .135600566864D-05  .997717434075D-02  .710226595402D-05  .515379207420D+04
     .511200000000D+06  .242143869400D-07  .648013793016D+00  .124797224998D-06
     .937942894275D+00  .230718750000D+03  .830846649606D+00 -.850928301722D-08
     .446447167745D-09  .100000000000D+01  .167500000000D+04  .000000000000D+00
     .240000000000D+01  .000000000000D+00 -.605359673500D-08  .170000000000D+02
     .504006000000D+06  .400000000000D+01
 5 12  2 17 22  0  0.0 -.283955130726D-03 -.443378667114D-11  .000000000000D+00
     .780000000000D+02 -.161875000000D+02  .500377985609D-08 -.153245342241D+01
    -.101141631603D-05  .271087861620D-02  .728294253349D-05  .515360064125D+04
     .511200000000D+06 -.111758708954D-07  .169418628824D+01 -.633299350739D-07
     .951364213830D+00  .231093750000D+03  .291620835818D+00 -.821284209784D-08
    -.362515100209D-09  .100000000000D+01  .167500000000D+04  .000000000000D+00
     .240000000000D+01  .000000000000D+00 -.102445483208D-07  .780000000000D+02
     .504006000000D+06  .400000000000D+01
